[{"OBJECT_NAME":"SKYSAT-C6","OBJECT_ID":"2017-068F","EPOCH":"2026-03-09T21:33:49.392576","MEAN_MOTION":15.32504544,"ECCENTRICITY":0.00036369,"INCLINATION":97.44,"RA_OF_ASC_NODE":205.7173,"ARG_OF_PERICENTER":127.5085,"MEAN_ANOMALY":232.6488,"EPHEMERIS_TYPE":0,"CLASSIFICATION_TYPE":"U","NORAD_CAT_ID":42992,"ELEMENT_SET_NO":999,"REV_AT_EPOCH":46710,"BSTAR":0.00039699196,"MEAN_MOTION_DOT":0.0001239,"MEAN_MOTION_DDOT":0},{"OBJECT_NAME":"STARLINK-35586","OBJECT_ID":"2025-240P","EPOCH":"2026-03-09T06:58:57.084672","MEAN_MOTION":15.30199855,"ECCENTRICITY":0.00012006,"INCLINATION":53.1591,"RA_OF_ASC_NODE":64.9288,"ARG_OF_PERICENTER":82.9425,"MEAN_ANOMALY":277.1712,"EPHEMERIS_TYPE":0,"CLASSIFICATION_TYPE":"U","NORAD_CAT_ID":66159,"ELEMENT_SET_NO":999,"REV_AT_EPOCH":2192,"BSTAR":0.00094324194,"MEAN_MOTION_DOT":0.00027681,"MEAN_MOTION_DDOT":0}]
